start=new Date('2023-01-04T00:00:00.000Z').valueOf();
sats=[{"NORAD_CAT_ID":"45194","SITE":"AFETR","SEMIMAJOR_AXIS":"6925.380","TIME_SYSTEM":"UTC","TLE_LINE1":"1 45194U 20012S   23003.62486171  .00000661  00000-0  63286-4 0  9993","BSTAR":"0.00006328600000","MEAN_ELEMENT_THEORY":"SGP4","DECAY_DATE":null,"INCLINATION":"53.0524","OBJECT_ID":"2020-012S","OBJECT_TYPE":"PAYLOAD","MEAN_MOTION":"15.06389773","PERIAPSIS":"546.235","GP_ID":"222081691","REV_AT_EPOCH":"15890","MEAN_ANOMALY":"266.2559","RA_OF_ASC_NODE":"218.8415","EPOCH":"2023-01-03T14:59:48.051744","REF_FRAME":"TEME","ELEMENT_SET_NO":"999","CLASSIFICATION_TYPE":"U","LAUNCH_DATE":"2020-02-17","TLE_LINE2":"2 45194  53.0524 218.8415 0001458  93.8597 266.2559 15.06389773158909","PERIOD":"95.593","APOAPSIS":"548.255","OBJECT_NAME":"STARLINK-1240","MEAN_MOTION_DOT":"0.00000661","EPHEMERIS_TYPE":"0","ECCENTRICITY":"0.00014580","COUNTRY_CODE":"US","CENTER_NAME":"EARTH","FILE":"3730529","MEAN_MOTION_DDOT":"0.0000000000000","ARG_OF_PERICENTER":"93.8597","RCS_SIZE":"LARGE"},{"CLASSIFICATION_TYPE":"U","LAUNCH_DATE":"2020-02-17","TLE_LINE2":"2 45195  53.0486 206.6498 0003301 132.8931 227.2341 15.20216723160008","PERIOD":"94.723","EPOCH":"2023-01-03T13:42:01.129824","RA_OF_ASC_NODE":"206.6498","REF_FRAME":"TEME","ELEMENT_SET_NO":"999","FILE":"3730926","CENTER_NAME":"EARTH","ARG_OF_PERICENTER":"132.8931","MEAN_MOTION_DDOT":"0.0000000000000","RCS_SIZE":"LARGE","APOAPSIS":"507.461","OBJECT_NAME":"STARLINK-1241","MEAN_MOTION_DOT":"0.00028948","EPHEMERIS_TYPE":"0","ECCENTRICITY":"0.00033010","COUNTRY_CODE":"US","TIME_SYSTEM":"UTC","TLE_LINE1":"1 45195U 20012T   23003.57084641  .00028948  00000-0  13283-2 0  9992","BSTAR":"0.00132830000000","MEAN_ELEMENT_THEORY":"SGP4","NORAD_CAT_ID":"45195","SITE":"AFETR","SEMIMAJOR_AXIS":"6883.323","MEAN_MOTION":"15.20216723","GP_ID":"222109921","PERIAPSIS":"502.916","REV_AT_EPOCH":"16000","MEAN_ANOMALY":"227.2341","DECAY_DATE":null,"INCLINATION":"53.0486","OBJECT_ID":"2020-012T","OBJECT_TYPE":"PAYLOAD"},{"ELEMENT_SET_NO":"999","REF_FRAME":"TEME","EPOCH":"2023-01-03T17:44:20.758560","RA_OF_ASC_NODE":"218.3396","TLE_LINE2":"2 45196  53.0531 218.3396 0001415  70.4797 289.6344 15.06396883158954","PERIOD":"95.592","LAUNCH_DATE":"2020-02-17","CLASSIFICATION_TYPE":"U","ECCENTRICITY":"0.00014150","COUNTRY_CODE":"US","APOAPSIS":"548.203","MEAN_MOTION_DOT":"0.00002281","EPHEMERIS_TYPE":"0","OBJECT_NAME":"STARLINK-1244","RCS_SIZE":"LARGE","CENTER_NAME":"EARTH","FILE":"3730885","MEAN_MOTION_DDOT":"0.0000000000000","ARG_OF_PERICENTER":"70.4797","SEMIMAJOR_AXIS":"6925.358","SITE":"AFETR","NORAD_CAT_ID":"45196","BSTAR":"0.00017201000000","MEAN_ELEMENT_THEORY":"SGP4","TLE_LINE1":"1 45196U 20012U   23003.73912915  .00002281  00000-0  17201-3 0  9992","TIME_SYSTEM":"UTC","OBJECT_ID":"2020-012U","OBJECT_TYPE":"PAYLOAD","DECAY_DATE":null,"INCLINATION":"53.0531","MEAN_ANOMALY":"289.6344","MEAN_MOTION":"15.06396883","REV_AT_EPOCH":"15895","GP_ID":"222089117","PERIAPSIS":"546.243"},{"TLE_LINE1":"1 45197U 20012V   23003.13094958  .00000136  00000-0  28018-4 0  9991","TIME_SYSTEM":"UTC","MEAN_ELEMENT_THEORY":"SGP4","BSTAR":"0.00002801800000","SITE":"AFETR","NORAD_CAT_ID":"45197","SEMIMAJOR_AXIS":"6925.366","GP_ID":"222108922","PERIAPSIS":"546.225","REV_AT_EPOCH":"15973","MEAN_MOTION":"15.06394197","MEAN_ANOMALY":"274.0086","INCLINATION":"53.0521","DECAY_DATE":null,"OBJECT_TYPE":"PAYLOAD","OBJECT_ID":"2020-012V","CLASSIFICATION_TYPE":"U","LAUNCH_DATE":"2020-02-17","PERIOD":"95.593","TLE_LINE2":"2 45197  53.0521 221.0624 0001453  86.1069 274.0086 15.06394197159731","RA_OF_ASC_NODE":"221.0624","EPOCH":"2023-01-03T03:08:34.043712","ELEMENT_SET_NO":"999","REF_FRAME":"TEME","MEAN_MOTION_DDOT":"0.0000000000000","ARG_OF_PERICENTER":"86.1069","CENTER_NAME":"EARTH","FILE":"3730926","RCS_SIZE":"LARGE","EPHEMERIS_TYPE":"0","MEAN_MOTION_DOT":"0.00000136","OBJECT_NAME":"STARLINK-1269","APOAPSIS":"548.238","COUNTRY_CODE":"US","ECCENTRICITY":"0.00014530"},{"MEAN_MOTION_DOT":"0.00002774","EPHEMERIS_TYPE":"0","OBJECT_NAME":"STARLINK-1154","APOAPSIS":"548.284","COUNTRY_CODE":"US","ECCENTRICITY":"0.00015330","ARG_OF_PERICENTER":"78.4933","MEAN_MOTION_DDOT":"0.0000000000000","FILE":"3730926","CENTER_NAME":"EARTH","RCS_SIZE":"LARGE","RA_OF_ASC_NODE":"199.3260","EPOCH":"2023-01-03T12:28:31.144224","ELEMENT_SET_NO":"999","REF_FRAME":"TEME","LAUNCH_DATE":"2020-02-17","CLASSIFICATION_TYPE":"U","PERIOD":"95.592","TLE_LINE2":"2 45198  53.0527 199.3260 0001533  78.4933 281.6228 15.06397112160042","INCLINATION":"53.0527","DECAY_DATE":null,"OBJECT_TYPE":"PAYLOAD","OBJECT_ID":"2020-012W","GP_ID":"222109172","PERIAPSIS":"546.161","REV_AT_EPOCH":"16004","MEAN_MOTION":"15.06397112","MEAN_ANOMALY":"281.6228","SITE":"AFETR","NORAD_CAT_ID":"45198","SEMIMAJOR_AXIS":"6925.357","TLE_LINE1":"1 45198U 20012W   23003.51980491  .00002774  00000-0  20509-3 0  9996","TIME_SYSTEM":"UTC","MEAN_ELEMENT_THEORY":"SGP4","BSTAR":"0.00020509000000"},{"RA_OF_ASC_NODE":"199.0097","EPOCH":"2023-01-03T14:09:25.063488","ELEMENT_SET_NO":"999","REF_FRAME":"TEME","CLASSIFICATION_TYPE":"U","LAUNCH_DATE":"2020-02-17","TLE_LINE2":"2 45199  53.0535 199.0097 0001638  92.1748 267.9429 15.06391503160116","PERIOD":"95.593","APOAPSIS":"548.374","MEAN_MOTION_DOT":"0.00002020","EPHEMERIS_TYPE":"0","OBJECT_NAME":"STARLINK-1197","ECCENTRICITY":"0.00016380","COUNTRY_CODE":"US","FILE":"3730926","CENTER_NAME":"EARTH","ARG_OF_PERICENTER":"92.1748","MEAN_MOTION_DDOT":"0.0000000000000","RCS_SIZE":"LARGE","SITE":"AFETR","NORAD_CAT_ID":"45199","SEMIMAJOR_AXIS":"6925.375","TLE_LINE1":"1 45199U 20012X   23003.58987342  .00002020  00000-0  15452-3 0  9991","TIME_SYSTEM":"UTC","BSTAR":"0.00015452000000","MEAN_ELEMENT_THEORY":"SGP4","INCLINATION":"53.0535","DECAY_DATE":null,"OBJECT_ID":"2020-012X","OBJECT_TYPE":"PAYLOAD","MEAN_MOTION":"15.06391503","PERIAPSIS":"546.105","GP_ID":"222110422","REV_AT_EPOCH":"16011","MEAN_ANOMALY":"267.9429"},{"PERIOD":"95.592","TLE_LINE2":"2 45201  53.0549 199.2703 0001164  88.3022 271.8101 15.06399328160100","CLASSIFICATION_TYPE":"U","LAUNCH_DATE":"2020-02-17","ELEMENT_SET_NO":"999","REF_FRAME":"TEME","RA_OF_ASC_NODE":"199.2703","EPOCH":"2023-01-03T12:44:26.564064","RCS_SIZE":"LARGE","MEAN_MOTION_DDOT":"0.0000000000000","ARG_OF_PERICENTER":"88.3022","CENTER_NAME":"EARTH","FILE":"3730926","COUNTRY_CODE":"US","ECCENTRICITY":"0.00011640","EPHEMERIS_TYPE":"0","MEAN_MOTION_DOT":"0.00001135","OBJECT_NAME":"STARLINK-1199","APOAPSIS":"548.022","MEAN_ELEMENT_THEORY":"SGP4","BSTAR":"0.00009506500000","TLE_LINE1":"1 45201U 20012Z   23003.53086301  .00001135  00000-0  95065-4 0  9990","TIME_SYSTEM":"UTC","SEMIMAJOR_AXIS":"6925.351","SITE":"AFETR","NORAD_CAT_ID":"45201","MEAN_ANOMALY":"271.8101","GP_ID":"222110652","REV_AT_EPOCH":"16010","PERIAPSIS":"546.410","MEAN_MOTION":"15.06399328","OBJECT_TYPE":"PAYLOAD","OBJECT_ID":"2020-012Z","INCLINATION":"53.0549","DECAY_DATE":null},{"MEAN_ANOMALY":"210.1928","PERIAPSIS":"475.960","GP_ID":"222088216","REV_AT_EPOCH":"15928","MEAN_MOTION":"15.29028393","OBJECT_TYPE":"PAYLOAD","OBJECT_ID":"2020-012AA","INCLINATION":"52.9634","DECAY_DATE":null,"MEAN_ELEMENT_THEORY":"SGP4","BSTAR":"0.00165940000000","TIME_SYSTEM":"UTC","TLE_LINE1":"1 45202U 20012AA  23003.21643939  .00047365  00000-0  16594-2 0  9995","SEMIMAJOR_AXIS":"6856.853","NORAD_CAT_ID":"45202","SITE":"AFETR","RCS_SIZE":"LARGE","MEAN_MOTION_DDOT":"0.0000000000000","ARG_OF_PERICENTER":"149.9301","FILE":"3730835","CENTER_NAME":"EARTH","COUNTRY_CODE":"US","ECCENTRICITY":"0.00040220","OBJECT_NAME":"STARLINK-1203","MEAN_MOTION_DOT":"0.00047365","EPHEMERIS_TYPE":"0","APOAPSIS":"481.475","PERIOD":"94.177","TLE_LINE2":"2 45202  52.9634 185.0874 0004022 149.9301 210.1928 15.29028393159282","LAUNCH_DATE":"2020-02-17","CLASSIFICATION_TYPE":"U","REF_FRAME":"TEME","ELEMENT_SET_NO":"999","EPOCH":"2023-01-03T05:11:40.363296","RA_OF_ASC_NODE":"185.0874"},{"CLASSIFICATION_TYPE":"U","LAUNCH_DATE":"2020-02-17","PERIOD":"95.593","TLE_LINE2":"2 45204  53.0544 197.9624 0001236  78.1733 281.9394 15.06378961159217","RA_OF_ASC_NODE":"197.9624","EPOCH":"2023-01-03T19:43:46.449696","ELEMENT_SET_NO":"999","REF_FRAME":"TEME","ARG_OF_PERICENTER":"78.1733","MEAN_MOTION_DDOT":"0.0000000000000","CENTER_NAME":"EARTH","FILE":"3730835","RCS_SIZE":"LARGE","EPHEMERIS_TYPE":"0","MEAN_MOTION_DOT":"0.00008579","OBJECT_NAME":"STARLINK-1206","APOAPSIS":"548.134","COUNTRY_CODE":"US","ECCENTRICITY":"0.00012360","TLE_LINE1":"1 45204U 20012AC  23003.82206539  .00008579  00000-0  59446-3 0  9993","TIME_SYSTEM":"UTC","MEAN_ELEMENT_THEORY":"SGP4","BSTAR":"0.00059446000000","SITE":"AFETR","NORAD_CAT_ID":"45204","SEMIMAJOR_AXIS":"6925.413","PERIAPSIS":"546.422","GP_ID":"222088203","REV_AT_EPOCH":"15921","MEAN_MOTION":"15.06378961","MEAN_ANOMALY":"281.9394","DECAY_DATE":null,"INCLINATION":"53.0544","OBJECT_TYPE":"PAYLOAD","OBJECT_ID":"2020-012AC"},{"MEAN_ELEMENT_THEORY":"SGP4","BSTAR":"-0.00001284100000","TLE_LINE1":"1 45205U 20012AD  23003.57879092 -.00000473  00000-0 -12841-4 0  9992","TIME_SYSTEM":"UTC","SEMIMAJOR_AXIS":"6925.377","SITE":"AFETR","NORAD_CAT_ID":"45205","MEAN_ANOMALY":"284.9483","PERIAPSIS":"546.448","GP_ID":"222109922","REV_AT_EPOCH":"16013","MEAN_MOTION":"15.06390567","OBJECT_TYPE":"PAYLOAD","OBJECT_ID":"2020-012AD","DECAY_DATE":null,"INCLINATION":"53.0547","PERIOD":"95.593","TLE_LINE2":"2 45205  53.0547 199.0432 0001147  75.1633 284.9483 15.06390567160139","LAUNCH_DATE":"2020-02-17","CLASSIFICATION_TYPE":"U","ELEMENT_SET_NO":"999","REF_FRAME":"TEME","EPOCH":"2023-01-03T13:53:27.535488","RA_OF_ASC_NODE":"199.0432","RCS_SIZE":"LARGE","MEAN_MOTION_DDOT":"0.0000000000000","ARG_OF_PERICENTER":"75.1633","FILE":"3730926","CENTER_NAME":"EARTH","COUNTRY_CODE":"US","ECCENTRICITY":"0.00011470","EPHEMERIS_TYPE":"0","MEAN_MOTION_DOT":"-0.00000473","OBJECT_NAME":"STARLINK-1208","APOAPSIS":"548.037"}];
